[{"OBJECT_NAME":"STARLINK-32611","OBJECT_ID":"2024-210T","EPOCH":"2026-03-09T07:41:32.038944","MEAN_MOTION":15.27599373,"ECCENTRICITY":0.00029733,"INCLINATION":43.0003,"RA_OF_ASC_NODE":181.8939,"ARG_OF_PERICENTER":281.0334,"MEAN_ANOMALY":79.0183,"EPHEMERIS_TYPE":0,"CLASSIFICATION_TYPE":"U","NORAD_CAT_ID":61976,"ELEMENT_SET_NO":999,"REV_AT_EPOCH":7482,"BSTAR":0.0012881067,"MEAN_MOTION_DOT":0.00035378,"MEAN_MOTION_DDOT":0},{"OBJECT_NAME":"PELICAN-6","OBJECT_ID":"2025-276AP","EPOCH":"2026-03-09T16:58:12.890496","MEAN_MOTION":15.2637798,"ECCENTRICITY":0.0003569,"INCLINATION":97.4276,"RA_OF_ASC_NODE":144.2072,"ARG_OF_PERICENTER":157.8575,"MEAN_ANOMALY":202.2819,"EPHEMERIS_TYPE":0,"CLASSIFICATION_TYPE":"U","NORAD_CAT_ID":66703,"ELEMENT_SET_NO":999,"REV_AT_EPOCH":1533,"BSTAR":0.0029725783,"MEAN_MOTION_DOT":0.00077979,"MEAN_MOTION_DDOT":0}]
